start=new Date('2023-05-30T00:00:00.000Z').valueOf();
sats=[{"MEAN_MOTION_DOT":"-0.00001928","TLE_LINE2":"2 49736  53.2175  24.4972 0001044  76.7866 283.3243 15.08833788 82344","REV_AT_EPOCH":"8234","APOAPSIS":"540.487","MEAN_MOTION_DDOT":"0.0000000000000","OBJECT_NAME":"STARLINK-3148","OBJECT_TYPE":"PAYLOAD","INCLINATION":"53.2175","LAUNCH_DATE":"2021-12-02","EPHEMERIS_TYPE":"0","FILE":"3920354","ECCENTRICITY":"0.00010440","BSTAR":"-0.00010310000000","GP_ID":"232779574","MEAN_MOTION":"15.08833788","ARG_OF_PERICENTER":"76.7866","SEMIMAJOR_AXIS":"6917.899","EPOCH":"2023-05-29T22:39:58.900608","TLE_LINE1":"1 49736U 21115N   23149.94443172 -.00001928  00000-0 -10310-3 0  9992","COUNTRY_CODE":"US","ELEMENT_SET_NO":"999","NORAD_CAT_ID":"49736","MEAN_ANOMALY":"283.3243","PERIAPSIS":"539.042","OBJECT_ID":"2021-115N","DECAY_DATE":null,"CLASSIFICATION_TYPE":"U","CENTER_NAME":"EARTH","RA_OF_ASC_NODE":"24.4972","SITE":"AFETR","TIME_SYSTEM":"UTC","MEAN_ELEMENT_THEORY":"SGP4","REF_FRAME":"TEME","PERIOD":"95.438","RCS_SIZE":"LARGE"},{"OBJECT_TYPE":"PAYLOAD","INCLINATION":"53.2182","EPHEMERIS_TYPE":"0","LAUNCH_DATE":"2021-12-02","FILE":"3920354","TLE_LINE2":"2 49737  53.2182  24.5073 0001193  85.4258 274.6870 15.08836406 82342","MEAN_MOTION_DOT":"-0.00000556","APOAPSIS":"540.582","REV_AT_EPOCH":"8234","MEAN_MOTION_DDOT":"0.0000000000000","OBJECT_NAME":"STARLINK-3225","MEAN_MOTION":"15.08836406","GP_ID":"232779813","ARG_OF_PERICENTER":"85.4258","SEMIMAJOR_AXIS":"6917.891","EPOCH":"2023-05-29T22:33:18.326016","ECCENTRICITY":"0.00011930","BSTAR":"-0.00001683000000","ELEMENT_SET_NO":"999","NORAD_CAT_ID":"49737","MEAN_ANOMALY":"274.6870","PERIAPSIS":"538.931","COUNTRY_CODE":"US","TLE_LINE1":"1 49737U 21115P   23149.93979544 -.00000556  00000-0 -16830-4 0  9999","TIME_SYSTEM":"UTC","MEAN_ELEMENT_THEORY":"SGP4","SITE":"AFETR","PERIOD":"95.438","REF_FRAME":"TEME","RCS_SIZE":"LARGE","DECAY_DATE":null,"OBJECT_ID":"2021-115P","CENTER_NAME":"EARTH","CLASSIFICATION_TYPE":"U","RA_OF_ASC_NODE":"24.5073"},{"TLE_LINE1":"1 49738U 21115Q   23149.94715356 -.00000422  00000-0 -84307-5 0  9997","COUNTRY_CODE":"US","NORAD_CAT_ID":"49738","ELEMENT_SET_NO":"999","PERIAPSIS":"539.144","MEAN_ANOMALY":"271.3879","OBJECT_ID":"2021-115Q","DECAY_DATE":null,"RA_OF_ASC_NODE":"24.4790","CLASSIFICATION_TYPE":"U","CENTER_NAME":"EARTH","REF_FRAME":"TEME","PERIOD":"95.438","SITE":"AFETR","TIME_SYSTEM":"UTC","MEAN_ELEMENT_THEORY":"SGP4","RCS_SIZE":"LARGE","APOAPSIS":"540.370","REV_AT_EPOCH":"8234","MEAN_MOTION_DDOT":"0.0000000000000","MEAN_MOTION_DOT":"-0.00000422","TLE_LINE2":"2 49738  53.2176  24.4790 0000886  88.7214 271.3879 15.08836278 82347","OBJECT_NAME":"STARLINK-3143","INCLINATION":"53.2176","OBJECT_TYPE":"PAYLOAD","FILE":"3920354","LAUNCH_DATE":"2021-12-02","EPHEMERIS_TYPE":"0","BSTAR":"-0.00000843070000","ECCENTRICITY":"0.00008860","GP_ID":"232778073","MEAN_MOTION":"15.08836278","EPOCH":"2023-05-29T22:43:54.067584","ARG_OF_PERICENTER":"88.7214","SEMIMAJOR_AXIS":"6917.892"},{"ECCENTRICITY":"0.00014010","BSTAR":"0.00005966400000","ARG_OF_PERICENTER":"110.4488","SEMIMAJOR_AXIS":"6917.898","EPOCH":"2023-05-29T20:40:41.508192","GP_ID":"232778823","MEAN_MOTION":"15.08834135","OBJECT_NAME":"STARLINK-3155","MEAN_MOTION_DOT":"0.00000662","TLE_LINE2":"2 49739  53.2176  34.8533 0001401 110.4488 249.6655 15.08834135 82180","APOAPSIS":"540.733","MEAN_MOTION_DDOT":"0.0000000000000","REV_AT_EPOCH":"8218","LAUNCH_DATE":"2021-12-02","EPHEMERIS_TYPE":"0","FILE":"3920354","INCLINATION":"53.2176","OBJECT_TYPE":"PAYLOAD","CENTER_NAME":"EARTH","CLASSIFICATION_TYPE":"U","RA_OF_ASC_NODE":"34.8533","OBJECT_ID":"2021-115R","DECAY_DATE":null,"RCS_SIZE":"LARGE","SITE":"AFETR","MEAN_ELEMENT_THEORY":"SGP4","TIME_SYSTEM":"UTC","REF_FRAME":"TEME","PERIOD":"95.438","COUNTRY_CODE":"US","TLE_LINE1":"1 49739U 21115R   23149.86159153  .00000662  00000-0  59664-4 0  9997","MEAN_ANOMALY":"249.6655","PERIAPSIS":"538.794","ELEMENT_SET_NO":"999","NORAD_CAT_ID":"49739"},{"FILE":"3920354","EPHEMERIS_TYPE":"0","LAUNCH_DATE":"2021-12-02","INCLINATION":"53.2176","OBJECT_TYPE":"PAYLOAD","OBJECT_NAME":"STARLINK-3226","REV_AT_EPOCH":"8234","APOAPSIS":"540.476","MEAN_MOTION_DDOT":"0.0000000000000","TLE_LINE2":"2 49740  53.2176  24.4128 0001050  90.4568 269.6544 15.08838753 82340","MEAN_MOTION_DOT":"0.00000216","EPOCH":"2023-05-29T22:55:52.074912","SEMIMAJOR_AXIS":"6917.884","ARG_OF_PERICENTER":"90.4568","MEAN_MOTION":"15.08838753","GP_ID":"232779075","ECCENTRICITY":"0.00010500","BSTAR":"0.00003168200000","PERIAPSIS":"539.023","MEAN_ANOMALY":"269.6544","NORAD_CAT_ID":"49740","ELEMENT_SET_NO":"999","COUNTRY_CODE":"US","TLE_LINE1":"1 49740U 21115S   23149.95546383  .00000216  00000-0  31682-4 0  9999","RCS_SIZE":"LARGE","PERIOD":"95.438","REF_FRAME":"TEME","TIME_SYSTEM":"UTC","MEAN_ELEMENT_THEORY":"SGP4","SITE":"AFETR","RA_OF_ASC_NODE":"24.4128","CENTER_NAME":"EARTH","CLASSIFICATION_TYPE":"U","DECAY_DATE":null,"OBJECT_ID":"2021-115S"},{"COUNTRY_CODE":"US","TLE_LINE1":"1 49741U 21115T   23149.95179377 -.00000696  00000-0 -25648-4 0  9994","ELEMENT_SET_NO":"999","NORAD_CAT_ID":"49741","MEAN_ANOMALY":"269.1793","PERIAPSIS":"539.015","DECAY_DATE":null,"OBJECT_ID":"2021-115T","CENTER_NAME":"EARTH","CLASSIFICATION_TYPE":"U","RA_OF_ASC_NODE":"24.4647","MEAN_ELEMENT_THEORY":"SGP4","TIME_SYSTEM":"UTC","SITE":"AFETR","PERIOD":"95.438","REF_FRAME":"TEME","RCS_SIZE":"LARGE","TLE_LINE2":"2 49741  53.2177  24.4647 0001075  90.9322 269.1793 15.08835527 82345","MEAN_MOTION_DOT":"-0.00000696","MEAN_MOTION_DDOT":"0.0000000000000","APOAPSIS":"540.503","REV_AT_EPOCH":"8234","OBJECT_NAME":"STARLINK-3244","OBJECT_TYPE":"PAYLOAD","INCLINATION":"53.2177","EPHEMERIS_TYPE":"0","LAUNCH_DATE":"2021-12-02","FILE":"3920354","ECCENTRICITY":"0.00010750","BSTAR":"-0.00002564800000","MEAN_MOTION":"15.08835527","GP_ID":"232779314","SEMIMAJOR_AXIS":"6917.894","ARG_OF_PERICENTER":"90.9322","EPOCH":"2023-05-29T22:50:34.981728"},{"EPOCH":"2023-05-29T21:35:00.777984","SEMIMAJOR_AXIS":"6917.896","ARG_OF_PERICENTER":"100.0870","MEAN_MOTION":"15.08834866","GP_ID":"232778573","ECCENTRICITY":"0.00012790","BSTAR":"0.00000996480000","FILE":"3920354","EPHEMERIS_TYPE":"0","LAUNCH_DATE":"2021-12-02","OBJECT_TYPE":"PAYLOAD","INCLINATION":"53.2182","OBJECT_NAME":"STARLINK-3202","APOAPSIS":"540.646","MEAN_MOTION_DDOT":"0.0000000000000","REV_AT_EPOCH":"8233","TLE_LINE2":"2 49742  53.2182  24.6942 0001279 100.0870 260.0267 15.08834866 82339","MEAN_MOTION_DOT":"-0.00000129","RCS_SIZE":"LARGE","PERIOD":"95.438","REF_FRAME":"TEME","MEAN_ELEMENT_THEORY":"SGP4","TIME_SYSTEM":"UTC","SITE":"AFETR","RA_OF_ASC_NODE":"24.6942","CLASSIFICATION_TYPE":"U","CENTER_NAME":"EARTH","DECAY_DATE":null,"OBJECT_ID":"2021-115U","PERIAPSIS":"538.876","MEAN_ANOMALY":"260.0267","NORAD_CAT_ID":"49742","ELEMENT_SET_NO":"999","TLE_LINE1":"1 49742U 21115U   23149.89931456 -.00000129  00000-0  99648-5 0  9994","COUNTRY_CODE":"US"},{"OBJECT_ID":"2021-115V","DECAY_DATE":null,"RA_OF_ASC_NODE":"24.4079","CLASSIFICATION_TYPE":"U","CENTER_NAME":"EARTH","REF_FRAME":"TEME","PERIOD":"95.438","SITE":"AFETR","MEAN_ELEMENT_THEORY":"SGP4","TIME_SYSTEM":"UTC","RCS_SIZE":"LARGE","TLE_LINE1":"1 49743U 21115V   23149.94810233 -.00000924  00000-0 -39981-4 0  9997","COUNTRY_CODE":"US","NORAD_CAT_ID":"49743","ELEMENT_SET_NO":"999","PERIAPSIS":"538.952","MEAN_ANOMALY":"265.2643","BSTAR":"-0.00003998100000","ECCENTRICITY":"0.00011590","GP_ID":"232778324","MEAN_MOTION":"15.08837387","EPOCH":"2023-05-29T22:45:16.041312","ARG_OF_PERICENTER":"94.8481","SEMIMAJOR_AXIS":"6917.888","APOAPSIS":"540.555","REV_AT_EPOCH":"8234","MEAN_MOTION_DDOT":"0.0000000000000","MEAN_MOTION_DOT":"-0.00000924","TLE_LINE2":"2 49743  53.2177  24.4079 0001159  94.8481 265.2643 15.08837387 82345","OBJECT_NAME":"STARLINK-3239","OBJECT_TYPE":"PAYLOAD","INCLINATION":"53.2177","FILE":"3920354","LAUNCH_DATE":"2021-12-02","EPHEMERIS_TYPE":"0"},{"DECAY_DATE":null,"OBJECT_ID":"2021-115W","CLASSIFICATION_TYPE":"U","CENTER_NAME":"EARTH","RA_OF_ASC_NODE":"24.6018","MEAN_ELEMENT_THEORY":"SGP4","TIME_SYSTEM":"UTC","SITE":"AFETR","PERIOD":"95.438","REF_FRAME":"TEME","RCS_SIZE":"LARGE","COUNTRY_CODE":"US","TLE_LINE1":"1 49744U 21115W   23149.89658411 -.00000992  00000-0 -44258-4 0  9998","ELEMENT_SET_NO":"999","NORAD_CAT_ID":"49744","MEAN_ANOMALY":"269.3094","PERIAPSIS":"538.846","ECCENTRICITY":"0.00013370","BSTAR":"-0.00004425800000","MEAN_MOTION":"15.08831503","GP_ID":"232779575","SEMIMAJOR_AXIS":"6917.906","ARG_OF_PERICENTER":"90.8051","EPOCH":"2023-05-29T21:31:04.867104","TLE_LINE2":"2 49744  53.2192  24.6018 0001337  90.8051 269.3094 15.08831503 82333","MEAN_MOTION_DOT":"-0.00000992","APOAPSIS":"540.696","REV_AT_EPOCH":"8233","MEAN_MOTION_DDOT":"0.0000000000000","OBJECT_NAME":"STARLINK-3231","OBJECT_TYPE":"PAYLOAD","INCLINATION":"53.2192","EPHEMERIS_TYPE":"0","LAUNCH_DATE":"2021-12-02","FILE":"3920354"},{"MEAN_MOTION_DOT":"-0.00000209","TLE_LINE2":"2 49745  53.2182  24.6897 0001028  95.9683 264.1426 15.08834471 82331","REV_AT_EPOCH":"8233","APOAPSIS":"540.473","MEAN_MOTION_DDOT":"0.0000000000000","OBJECT_NAME":"STARLINK-3241","OBJECT_TYPE":"PAYLOAD","INCLINATION":"53.2182","LAUNCH_DATE":"2021-12-02","EPHEMERIS_TYPE":"0","FILE":"3920354","BSTAR":"0.00000496620000","ECCENTRICITY":"0.00010280","GP_ID":"232779814","MEAN_MOTION":"15.08834471","ARG_OF_PERICENTER":"95.9683","SEMIMAJOR_AXIS":"6917.897","EPOCH":"2023-05-29T21:25:47.481888","TLE_LINE1":"1 49745U 21115X   23149.89291067 -.00000209  00000-0  49662-5 0  9994","COUNTRY_CODE":"US","ELEMENT_SET_NO":"999","NORAD_CAT_ID":"49745","MEAN_ANOMALY":"264.1426","PERIAPSIS":"539.051","OBJECT_ID":"2021-115X","DECAY_DATE":null,"CLASSIFICATION_TYPE":"U","CENTER_NAME":"EARTH","RA_OF_ASC_NODE":"24.6897","SITE":"AFETR","MEAN_ELEMENT_THEORY":"SGP4","TIME_SYSTEM":"UTC","REF_FRAME":"TEME","PERIOD":"95.438","RCS_SIZE":"LARGE"}];
